ONEWEB-0211             
1 48767U 21045A   26157.54815051  .00000009  00000+0 -10346-4 0  9991
2 48767  87.9005 261.2034 0001530 119.9592 240.1691 13.16196478243048
ONEWEB-0223             
1 48768U 21045B   26157.54522284 -.00000030  00000+0 -11429-3 0  9992
2 48768  87.9006 261.3094 0001530 104.9730 255.1570 13.15545023243006
ONEWEB-0230             
1 48769U 21045C   26157.66883487  .00000034  00000+0  55947-4 0  9997
2 48769  87.8992 261.2995 0002015  95.3490 264.7870 13.15547341243288
ONEWEB-0237             
1 48770U 21045D   26157.65772728  .00000191  00000+0  47459-3 0  9995
2 48770  87.9000 261.3034 0001661  98.6514 261.4804 13.15550861243007
ONEWEB-0235             
1 48771U 21045E   26157.55633343 -.00000071  00000+0 -22257-3 0  9992
2 48771  87.9008 261.3084 0001511 102.3208 257.8091 13.15547855242980
ONEWEB-0242             
1 48772U 21045F   26157.54999814  .00000025  00000+0  33070-4 0  9993
2 48772  87.9011 261.3062 0001806  96.4502 263.6834 13.15548531243026
ONEWEB-0241             
1 48773U 21045G   26157.53732455 -.00000063  00000+0 -20103-3 0  9995
2 48773  87.9000 261.3281 0001615 110.6443 249.4860 13.15547962242936
ONEWEB-0243             
1 48774U 21045H   26157.64506630  .00000074  00000+0  16172-3 0  9993
2 48774  87.8999 261.3190 0001603  87.7324 272.3990 13.15548034242975
ONEWEB-0222             
1 48775U 21045J   26157.55236884 -.00000032  00000+0 -11923-3 0  9990
2 48775  87.9014 261.3044 0001718 103.9289 256.2032 13.15548477243005
ONEWEB-0244             
1 48776U 21045K   26157.65457330  .00000181  00000+0  44767-3 0  9998
2 48776  87.9014 261.2780 0001786  99.6599 260.4733 13.15548513243581
ONEWEB-0247             
1 48777U 21045L   26157.65139157  .00000038  00000+0  66131-4 0  9994
2 48777  87.8997 261.3122 0001160  87.5559 272.5704 13.15546123243026
ONEWEB-0245             
1 48778U 21045M   26157.57058731 -.00000080  00000+0 -24672-3 0  9996
2 48778  87.9006 261.3069 0001861 105.6903 254.4433 13.15550215242981
ONEWEB-0229             
1 48779U 21045N   26157.56583843  .00000060  00000+0  12586-3 0  9990
2 48779  87.9009 261.3054 0001867  97.2262 262.9080 13.15548246243017
ONEWEB-0228             
1 48780U 21045P   26157.52317991  .00000066  00000+0  14091-3 0  9996
2 48780  87.9016 261.3058 0001796 101.2493 258.8839 13.15550909242928
ONEWEB-0232             
1 48781U 21045Q   26157.57375845  .00000135  00000+0  32559-3 0  9990
2 48781  87.9011 261.2972 0001915 103.3033 256.8311 13.15550349243252
ONEWEB-0231             
1 48782U 21045R   26157.55157185 -.00000042  00000+0 -14444-3 0  9996
2 48782  87.9006 261.3154 0001696 102.7970 257.3349 13.15548700242949
ONEWEB-0234             
1 48783U 21045S   26157.66552711  .00000179  00000+0  44046-3 0  9993
2 48783  87.9005 261.2730 0002385 119.5603 240.5765 13.15549661243093
ONEWEB-0238             
1 48784U 21045T   26157.66579366  .00000321  00000+0  81876-3 0  9990
2 48784  87.9038 261.2662 0002387 118.6234 241.5136 13.15550552242998
ONEWEB-0240             
1 48785U 21045U   26157.53492682 -.00000223  00000+0 -62561-3 0  9995
2 48785  87.9023 261.3039 0001683 108.9451 251.1861 13.15548636243008
ONEWEB-0246             
1 48786U 21045V   26156.84488287 -.00000005  00000+0 -48027-4 0  9995
2 48786  87.9005 261.4459 0001845  97.1824 262.9516 13.15549005242781
ONEWEB-0210             
1 48787U 21045W   26157.65615582  .00000088  00000+0  20008-3 0  9993
2 48787  87.9008 261.2818 0001370  77.2514 282.8769 13.15549694242932
ONEWEB-0214             
1 48788U 21045X   26157.58881321  .00000247  00000+0  62329-3 0  9991
2 48788  87.9012 261.2918 0001949  89.4759 270.6594 13.15548700242890
ONEWEB-0221             
1 48789U 21045Y   26157.51988574  .00000206  00000+0  51376-3 0  9998
2 48789  87.9012 261.3142 0001805 102.5539 257.5793 13.15548352242972
ONEWEB-0213             
1 48790U 21045Z   26157.58483537  .00000255  00000+0  64294-3 0  9993
2 48790  87.9010 261.3047 0001683  98.3294 261.8027 13.15551023243046
ONEWEB-0212             
1 48791U 21045AA  26157.56188252  .00000048  00000+0  93206-4 0  9994
2 48791  87.9008 261.3037 0001933 102.0802 258.0545 13.15549162243032
ONEWEB-0227             
1 48792U 21045AB  26157.56108924 -.00000049  00000+0 -16358-3 0  9998
2 48792  87.9006 261.3048 0001900 102.0768 258.0575 13.15548492242989
ONEWEB-0226             
1 48793U 21045AC  26157.55474561 -.00000057  00000+0 -18438-3 0  9991
2 48793  87.9003 261.3111 0001722  95.8884 264.2443 13.15549960242959
ONEWEB-0224             
1 48794U 21045AD  26157.67040326  .00000065  00000+0  13956-3 0  9990
2 48794  87.8996 261.3221 0001960 128.6586 231.4720 13.15550314242892
ONEWEB-0233             
1 48795U 21045AE  26157.59897359  .00000100  00000+0  23091-3 0  9999
2 48795  87.9000 261.3436 0001707 107.5447 252.5870 13.15547863242906
ONEWEB-0190             
1 48796U 21045AF  26157.58641863  .00000245  00000+0  61682-3 0  9994
2 48796  87.9000 261.3084 0001215  98.3482 261.7786 13.15551337242972
